[{"OBJECT_NAME":"STARLINK-35611","OBJECT_ID":"2025-259F","EPOCH":"2026-03-09T19:59:39.060672","MEAN_MOTION":15.27592891,"ECCENTRICITY":0.00018065,"INCLINATION":43.0003,"RA_OF_ASC_NODE":273.5007,"ARG_OF_PERICENTER":274.1429,"MEAN_ANOMALY":85.9216,"EPHEMERIS_TYPE":0,"CLASSIFICATION_TYPE":"U","NORAD_CAT_ID":66427,"ELEMENT_SET_NO":999,"REV_AT_EPOCH":1951,"BSTAR":0.001013964,"MEAN_MOTION_DOT":0.00027756,"MEAN_MOTION_DDOT":0},{"OBJECT_NAME":"DMSP 5D-2 F13 DEB","OBJECT_ID":"1995-015HL","EPOCH":"2026-02-09T02:06:19.247328","MEAN_MOTION":15.12822218,"ECCENTRICITY":0.00117732,"INCLINATION":98.8603,"RA_OF_ASC_NODE":96.8879,"ARG_OF_PERICENTER":223.037,"MEAN_ANOMALY":136.9936,"EPHEMERIS_TYPE":0,"CLASSIFICATION_TYPE":"U","NORAD_CAT_ID":42294,"ELEMENT_SET_NO":999,"REV_AT_EPOCH":55633,"BSTAR":0.010466292,"MEAN_MOTION_DOT":0.00188804,"MEAN_MOTION_DDOT":0}]
